{"fetched_at":"2026-03-30T13:17:50Z","count":15418,"tles":[{"name":"STARLINK-5164","line1":"1 54178U 22141X   26087.91093381  .00001055  00000+0  84376-4 0  9994","line2":"2 54178  53.2172 277.5139 0001222  83.0505 277.0626 15.08837820188761","category":"Starlink"}]}