{
  "norad_id": 54178,
  "name": "STARLINK-5164",
  "history": [
    {
      "epoch": "2026-03-28T21:51:44.681184Z",
      "apogee_km": 540.5954181578036,
      "perigee_km": 538.9046865622067,
      "latitude_deg": -8.356940170122558e-06,
      "longitude_deg": 123.25312892204668,
      "height_km": 540.5436573178647,
      "semi_major_axis_km": 6917.887052360004,
      "eccentricity": 0.0001222,
      "inclination_deg": 53.2172,
      "raan_deg": 277.5139,
      "arg_perigee_deg": 83.0505,
      "mean_anomaly_deg": 277.0626,
      "mean_motion_rev_day": 15.0883782
    }
  ]
}